STARLINK-3914           
1 52490U 22049AR  26064.38976607  .00000489  00000+0  48822-4 0  9999
2 52490  53.2175  68.4207 0001321  89.4329 270.6815 15.08836180211748
STARLINK-3908           
1 52491U 22049AS  26064.19840787 -.00000198  00000+0  56679-5 0  9996
2 52491  53.2170  69.2824 0001461  83.6546 276.4613 15.08834259211712
STARLINK-3916           
1 52492U 22049AT  26064.44864827  .00000507  00000+0  49951-4 0  9993
2 52492  53.2172  68.1576 0001447  93.1451 266.9706 15.08836696211750
STARLINK-3883           
1 52493U 22049AU  26064.26096474 -.00000879  00000+0 -37165-4 0  9997
2 52493  53.2185  68.9990 0001544 109.8419 250.2740 15.08833539211724
STARLINK-3857           
1 52494U 22049AV  26064.43760709 -.00000501  00000+0 -13370-4 0  9990
2 52494  53.2173  68.2081 0001396 109.4338 250.6805 15.08832593211755
STARLINK-3871           
1 52496U 22049AX  26064.40678182 -.00001029  00000+0 -46551-4 0  9995
2 52496  53.2188  63.3485 0001214  85.1771 274.9360 15.08838117211817
STARLINK-3884           
1 52497U 22049AY  26064.37872966 -.00001034  00000+0 -46950-4 0  9997
2 52497  53.2166  68.4687 0000786 110.1571 249.9506 15.08825269211744
STARLINK-3925           
1 52498U 22049AZ  26064.35388489  .00000868  00000+0  72647-4 0  9992
2 52498  53.2167  58.5812 0001203  73.2105 286.9019 15.08836617211876
STARLINK-3894           
1 52499U 22049BA  26064.30880674  .00000234  00000+0  32791-4 0  9994
2 52499  53.2167  68.7845 0001320  85.6762 274.4381 15.08836330211733
STARLINK-3866           
1 52500U 22049BB  26064.28396159  .00000955  00000+0  78102-4 0  9990
2 52500  53.2174  58.8962 0001326  91.2982 268.8163 15.08839288211861
STARLINK-3907           
1 52501U 22049BC  26064.41918294 -.00000232  00000+0  34861-5 0  9990
2 52501  53.2174  68.0900 0001298  89.0840 271.0301 15.08834670211751
STARLINK-3912           
1 52502U 22049BD  26064.21404230 -.00002130  00000+0 -11578-3 0  9997
2 52502  53.2183  59.2434 0001373  98.9707 261.1441 15.08832986211855
STARLINK-3861           
1 52503U 22049BE  26064.40170972  .00000062  00000+0  22004-4 0  9999
2 52503  53.2171  58.2541 0001277 104.3530 255.7604 15.08836709211880
STARLINK-3952           
1 52534U 22051B   26064.66667824  .01192287  00000+0  25924-1 0  9994
2 52534  53.2311 144.8764 0001232  75.5328 358.3893 15.40927983  5651
STARLINK-3958           
1 52535U 22051C   26064.60321211 -.00000334  00000+0 -28663-5 0  9995
2 52535  53.2167 147.4675 0001415 109.9500 250.1644 15.08831795210827
STARLINK-3964           
1 52536U 22051D   26064.59953011  .00002516  00000+0  17621-3 0  9995
2 52536  53.2182 147.4840 0001078  93.1430 266.9686 15.08822919210829
