[{"OBJECT_NAME":"STARLINK-3914","OBJECT_ID":"2022-049AR","EPOCH":"2026-03-05T09:21:15.788448","MEAN_MOTION":15.0883618,"ECCENTRICITY":0.00013219,"INCLINATION":53.2175,"RA_OF_ASC_NODE":68.4207,"ARG_OF_PERICENTER":89.4329,"MEAN_ANOMALY":270.6815,"EPHEMERIS_TYPE":0,"CLASSIFICATION_TYPE":"U","NORAD_CAT_ID":52490,"ELEMENT_SET_NO":999,"REV_AT_EPOCH":21174,"BSTAR":4.8821689e-5,"MEAN_MOTION_DOT":4.89e-6,"MEAN_MOTION_DDOT":0},{"OBJECT_NAME":"STARLINK-3908","OBJECT_ID":"2022-049AS","EPOCH":"2026-03-05T04:45:42.439968","MEAN_MOTION":15.08834259,"ECCENTRICITY":0.00014616,"INCLINATION":53.217,"RA_OF_ASC_NODE":69.2824,"ARG_OF_PERICENTER":83.6546,"MEAN_ANOMALY":276.4613,"EPHEMERIS_TYPE":0,"CLASSIFICATION_TYPE":"U","NORAD_CAT_ID":52491,"ELEMENT_SET_NO":999,"REV_AT_EPOCH":21171,"BSTAR":5.667882e-6,"MEAN_MOTION_DOT":-1.98e-6,"MEAN_MOTION_DDOT":0},{"OBJECT_NAME":"STARLINK-3916","OBJECT_ID":"2022-049AT","EPOCH":"2026-03-05T10:46:03.210528","MEAN_MOTION":15.08836696,"ECCENTRICITY":0.00014477,"INCLINATION":53.2172,"RA_OF_ASC_NODE":68.1576,"ARG_OF_PERICENTER":93.1451,"MEAN_ANOMALY":266.9706,"EPHEMERIS_TYPE":0,"CLASSIFICATION_TYPE":"U","NORAD_CAT_ID":52492,"ELEMENT_SET_NO":999,"REV_AT_EPOCH":21175,"BSTAR":4.9950924e-5,"MEAN_MOTION_DOT":5.07e-6,"MEAN_MOTION_DDOT":0},{"OBJECT_NAME":"STARLINK-3883","OBJECT_ID":"2022-049AU","EPOCH":"2026-03-05T06:15:47.353536","MEAN_MOTION":15.08833539,"ECCENTRICITY":0.00015449,"INCLINATION":53.2185,"RA_OF_ASC_NODE":68.999,"ARG_OF_PERICENTER":109.8419,"MEAN_ANOMALY":250.274,"EPHEMERIS_TYPE":0,"CLASSIFICATION_TYPE":"U","NORAD_CAT_ID":52493,"ELEMENT_SET_NO":999,"REV_AT_EPOCH":21172,"BSTAR":-3.7164705e-5,"MEAN_MOTION_DOT":-8.79e-6,"MEAN_MOTION_DDOT":0},{"OBJECT_NAME":"STARLINK-3857","OBJECT_ID":"2022-049AV","EPOCH":"2026-03-05T10:30:09.252576","MEAN_MOTION":15.08832593,"ECCENTRICITY":0.00013967,"INCLINATION":53.2173,"RA_OF_ASC_NODE":68.2081,"ARG_OF_PERICENTER":109.4338,"MEAN_ANOMALY":250.6805,"EPHEMERIS_TYPE":0,"CLASSIFICATION_TYPE":"U","NORAD_CAT_ID":52494,"ELEMENT_SET_NO":999,"REV_AT_EPOCH":21175,"BSTAR":-1.336985e-5,"MEAN_MOTION_DOT":-5.01e-6,"MEAN_MOTION_DDOT":0},{"OBJECT_NAME":"STARLINK-3871","OBJECT_ID":"2022-049AX","EPOCH":"2026-03-05T09:45:45.949248","MEAN_MOTION":15.08838117,"ECCENTRICITY":0.00012146,"INCLINATION":53.2188,"RA_OF_ASC_NODE":63.3485,"ARG_OF_PERICENTER":85.1771,"MEAN_ANOMALY":274.936,"EPHEMERIS_TYPE":0,"CLASSIFICATION_TYPE":"U","NORAD_CAT_ID":52496,"ELEMENT_SET_NO":999,"REV_AT_EPOCH":21181,"BSTAR":-4.6550668e-5,"MEAN_MOTION_DOT":-1.029e-5,"MEAN_MOTION_DDOT":0},{"OBJECT_NAME":"STARLINK-3884","OBJECT_ID":"2022-049AY","EPOCH":"2026-03-05T09:05:22.242624","MEAN_MOTION":15.08825269,"ECCENTRICITY":7.863e-5,"INCLINATION":53.2166,"RA_OF_ASC_NODE":68.4687,"ARG_OF_PERICENTER":110.1571,"MEAN_ANOMALY":249.9506,"EPHEMERIS_TYPE":0,"CLASSIFICATION_TYPE":"U","NORAD_CAT_ID":52497,"ELEMENT_SET_NO":999,"REV_AT_EPOCH":21174,"BSTAR":-4.6950069e-5,"MEAN_MOTION_DOT":-1.034e-5,"MEAN_MOTION_DDOT":0},{"OBJECT_NAME":"STARLINK-3925","OBJECT_ID":"2022-049AZ","EPOCH":"2026-03-05T08:29:35.654496","MEAN_MOTION":15.08836617,"ECCENTRICITY":0.00012033,"INCLINATION":53.2167,"RA_OF_ASC_NODE":58.5812,"ARG_OF_PERICENTER":73.2105,"MEAN_ANOMALY":286.9019,"EPHEMERIS_TYPE":0,"CLASSIFICATION_TYPE":"U","NORAD_CAT_ID":52498,"ELEMENT_SET_NO":999,"REV_AT_EPOCH":21187,"BSTAR":7.2647236e-5,"MEAN_MOTION_DOT":8.68e-6,"MEAN_MOTION_DDOT":0},{"OBJECT_NAME":"STARLINK-3894","OBJECT_ID":"2022-049BA","EPOCH":"2026-03-05T07:24:40.902336","MEAN_MOTION":15.0883633,"ECCENTRICITY":0.00013202,"INCLINATION":53.2167,"RA_OF_ASC_NODE":68.7845,"ARG_OF_PERICENTER":85.6762,"MEAN_ANOMALY":274.4381,"EPHEMERIS_TYPE":0,"CLASSIFICATION_TYPE":"U","NORAD_CAT_ID":52499,"ELEMENT_SET_NO":999,"REV_AT_EPOCH":21173,"BSTAR":3.2791176e-5,"MEAN_MOTION_DOT":2.34e-6,"MEAN_MOTION_DDOT":0},{"OBJECT_NAME":"STARLINK-3866","OBJECT_ID":"2022-049BB","EPOCH":"2026-03-05T06:48:54.281376","MEAN_MOTION":15.08839288,"ECCENTRICITY":0.00013263,"INCLINATION":53.2174,"RA_OF_ASC_NODE":58.8962,"ARG_OF_PERICENTER":91.2982,"MEAN_ANOMALY":268.8163,"EPHEMERIS_TYPE":0,"CLASSIFICATION_TYPE":"U","NORAD_CAT_ID":52500,"ELEMENT_SET_NO":999,"REV_AT_EPOCH":21186,"BSTAR":7.8102353e-5,"MEAN_MOTION_DOT":9.55e-6,"MEAN_MOTION_DDOT":0},{"OBJECT_NAME":"STARLINK-3907","OBJECT_ID":"2022-049BC","EPOCH":"2026-03-05T10:03:37.406016","MEAN_MOTION":15.0883467,"ECCENTRICITY":0.0001298,"INCLINATION":53.2174,"RA_OF_ASC_NODE":68.09,"ARG_OF_PERICENTER":89.084,"MEAN_ANOMALY":271.0301,"EPHEMERIS_TYPE":0,"CLASSIFICATION_TYPE":"U","NORAD_CAT_ID":52501,"ELEMENT_SET_NO":999,"REV_AT_EPOCH":21175,"BSTAR":3.486069e-6,"MEAN_MOTION_DOT":-2.32e-6,"MEAN_MOTION_DDOT":0},{"OBJECT_NAME":"STARLINK-3912","OBJECT_ID":"2022-049BD","EPOCH":"2026-03-05T05:08:13.254720","MEAN_MOTION":15.08832986,"ECCENTRICITY":0.00013738,"INCLINATION":53.2183,"RA_OF_ASC_NODE":59.2434,"ARG_OF_PERICENTER":98.9707,"MEAN_ANOMALY":261.1441,"EPHEMERIS_TYPE":0,"CLASSIFICATION_TYPE":"U","NORAD_CAT_ID":52502,"ELEMENT_SET_NO":999,"REV_AT_EPOCH":21185,"BSTAR":-0.00011578346,"MEAN_MOTION_DOT":-2.13e-5,"MEAN_MOTION_DDOT":0},{"OBJECT_NAME":"STARLINK-3861","OBJECT_ID":"2022-049BE","EPOCH":"2026-03-05T09:38:27.719808","MEAN_MOTION":15.08836709,"ECCENTRICITY":0.00012774,"INCLINATION":53.2171,"RA_OF_ASC_NODE":58.2541,"ARG_OF_PERICENTER":104.353,"MEAN_ANOMALY":255.7604,"EPHEMERIS_TYPE":0,"CLASSIFICATION_TYPE":"U","NORAD_CAT_ID":52503,"ELEMENT_SET_NO":999,"REV_AT_EPOCH":21188,"BSTAR":2.2003528e-5,"MEAN_MOTION_DOT":6.2e-7,"MEAN_MOTION_DDOT":0},{"OBJECT_NAME":"STARLINK-3952","OBJECT_ID":"2022-051B","EPOCH":"2026-03-05T16:00:00.999936","MEAN_MOTION":15.40927983,"ECCENTRICITY":0.00012321,"INCLINATION":53.2311,"RA_OF_ASC_NODE":144.8764,"ARG_OF_PERICENTER":75.5328,"MEAN_ANOMALY":358.3893,"EPHEMERIS_TYPE":0,"CLASSIFICATION_TYPE":"U","NORAD_CAT_ID":52534,"ELEMENT_SET_NO":999,"REV_AT_EPOCH":565,"BSTAR":0.025923896,"MEAN_MOTION_DOT":0.01192287,"MEAN_MOTION_DDOT":0},{"OBJECT_NAME":"STARLINK-3958","OBJECT_ID":"2022-051C","EPOCH":"2026-03-05T14:28:37.526304","MEAN_MOTION":15.08831795,"ECCENTRICITY":0.00014155,"INCLINATION":53.2167,"RA_OF_ASC_NODE":147.4675,"ARG_OF_PERICENTER":109.95,"MEAN_ANOMALY":250.1644,"EPHEMERIS_TYPE":0,"CLASSIFICATION_TYPE":"U","NORAD_CAT_ID":52535,"ELEMENT_SET_NO":999,"REV_AT_EPOCH":21082,"BSTAR":-2.866264e-6,"MEAN_MOTION_DOT":-3.34e-6,"MEAN_MOTION_DDOT":0},{"OBJECT_NAME":"STARLINK-3964","OBJECT_ID":"2022-051D","EPOCH":"2026-03-05T14:23:19.401504","MEAN_MOTION":15.08822919,"ECCENTRICITY":0.00010781,"INCLINATION":53.2182,"RA_OF_ASC_NODE":147.484,"ARG_OF_PERICENTER":93.143,"MEAN_ANOMALY":266.9686,"EPHEMERIS_TYPE":0,"CLASSIFICATION_TYPE":"U","NORAD_CAT_ID":52536,"ELEMENT_SET_NO":999,"REV_AT_EPOCH":21082,"BSTAR":0.00017620745,"MEAN_MOTION_DOT":2.516e-5,"MEAN_MOTION_DDOT":0}]
